INTELSAT 23 (IS-23)     
1 38867U 12057A   26191.06250187 -.00000273  00000+0  00000+0 0  9996
2 38867   0.0141  34.5412 0000462 184.3558  38.5923  1.00269710 50185
FM-6                    
1 39360U 13058A   26191.34355187 -.00000005  00000+0  00000+0 0  9997
2 39360   0.0173  37.8546 0001269 139.1643 118.5748  1.00269774 46305
INTELSAT 30 (IS-30)     
1 40271U 14062A   26191.26289811 -.00000140  00000+0  00000+0 0  9997
2 40271   0.0192  51.4260 0001237 336.2755 260.0814  1.00271243  7020
DIRECTV 14              
1 40333U 14078B   26191.26211810 -.00000114  00000+0  00000+0 0  9998
2 40333   0.0098  16.4578 0000235 270.9204 355.9331  1.00267269 42274
DIRECTV 15              
1 40663U 15026A   26191.31079771 -.00000092  00000+0  00000+0 0  9997
2 40663   0.0196  72.6714 0000125 162.6704  61.9069  1.00272568 40699
SKY MEXICO-1            
1 40664U 15026B   26191.30808817 -.00000224  00000+0  00000+0 0  9995
2 40664   0.0178 353.0003 0002319 137.9443 189.4027  1.00271575 40685
INTELSAT 34 (IS-34)     
1 40874U 15039A   26191.05688244 -.00000274  00000+0  00000+0 0  9999
2 40874   0.0101  16.1720 0000122 324.1781 272.6171  1.00270657 39865
INTELSAT 31 (IS-31)     
1 41581U 16035A   26191.26289811 -.00000140  00000+0  00000+0 0  9994
2 41581   0.0186 278.5787 0001013 347.5471  21.6525  1.00271183 36919
INTELSAT 36 (IS-36)     
1 41747U 16053A   26191.17525213 -.00000013  00000+0  00000+0 0  9996
2 41747   0.0102 354.9716 0002514 346.8192  77.8966  1.00268599 36189
INTELSAT 32E (IS-32E)   
1 41945U 17007B   26191.13065417  .00000000  00000+0  00000+0 0  9992
2 41945   0.0258  33.0821 0000341 235.9737  22.8541  1.00267562 34458
INTELSAT 35E (IS-35E)   
1 42818U 17041A   26191.34238486 -.00000228  00000+0  00000+0 0  9994
2 42818   0.0029 110.0779 0001575 359.3114 267.6476  1.00270512 33041
INTELSAT 37E (IS-37E)   
1 42950U 17059A   26191.27815152 -.00000130  00000+0  00000+0 0  9995
2 42950   0.0174  46.5596 0002530  70.0094 253.7716  1.00270806 32290
AZERSPACE 2 (IS-38)     
1 43632U 18074A   26191.21937022  .00000000  00000+0  00000+0 0  9991
2 43632   0.0249  29.3091 0001272  98.0981 284.8304  1.00272725 28674
HORIZONS-3E             
1 43633U 18074B   26190.81617841 -.00000018  00000+0  00000+0 0  9991
2 43633   0.0363 213.3135 0000781  67.3154 109.9513  1.00272318 28566
AT&T T-16               
1 44333U 19034A   26190.90528495 -.00000103  00000+0  00000+0 0  9997
2 44333   0.0147  67.1818 0000718 252.0909 193.6074  1.00271911 25868
INTELSAT 39 (IS-39)     
1 44476U 19049B   26191.18914152  .00000000  00000+0  00000+0 0  9996
2 44476   0.0245  29.4915 0001092 296.0424  92.6209  1.00266683 25352
GALAXY 30 (G-30)        
1 46114U 20056C   26191.25700475  .00000000  00000+0  00000+0 0  9996
2 46114   0.0256  34.1445 0001938  79.9597 141.5979  1.00270345 21527
GALAXY 33 (G-33)        
1 54026U 22128A   26191.33662884  .00000090  00000+0  00000+0 0  9998
2 54026   0.0161   9.6093 0001798 107.0110 159.8280  1.00270649 13971
GALAXY 34 (G-34)        
1 54027U 22128B   26191.33871220  .00000070  00000+0  00000+0 0  9993
2 54027   0.0117  33.8074 0001498  90.3264 157.0600  1.00265764 14140
GALAXY 31 (G-31)        
1 54243U 22153A   26191.34177934  .00000000  00000+0  00000+0 0  9996
2 54243   0.0190  42.7700 0000932  80.0001 167.5317  1.00269816  7362
GALAXY 32 (G-32)        
1 54244U 22153B   26191.26376478 -.00000163  00000+0  00000+0 0  9993
2 54244   0.0095  29.5174 0001507  17.2587 245.3708  1.00271315 13379
GALAXY 35 (G-35)        
1 54741U 22170A   26191.30992721  .00000000  00000+0  00000+0 0  9993
2 54741   0.0164  28.5392 0001861  87.0011 191.1661  1.00269617 13120
GALAXY 36 (G-36)        
1 54742U 22170B   26191.26411145 -.00000174  00000+0  00000+0 0  9998
2 54742   0.0260 117.6924 0002426 341.0636 195.5164  1.00271533 13006
GALAXY 37 (G-37)        
1 57493U 23112A   26191.33794499  .00000059  00000+0  00000+0 0  9996
2 57493   0.0150  54.9369 0001789  59.1388 168.8462  1.00270378 10779
