OBJECT_NAME,OBJECT_ID,EPOCH,MEAN_MOTION,ECCENTRICITY,INCLINATION,RA_OF_ASC_NODE,ARG_OF_PERICENTER,MEAN_ANOMALY,EPHEMERIS_TYPE,CLASSIFICATION_TYPE,NORAD_CAT_ID,ELEMENT_SET_NO,REV_AT_EPOCH,BSTAR,MEAN_MOTION_DOT,MEAN_MOTION_DDOT
INTELSAT 23 (IS-23),2012-057A,2026-07-10T01:30:00.161568,1.00269710,.00004627,0.0141,34.5412,184.3558,38.5923,0,U,38867,999,5018,0,-.273E-5,0
FM-6,2013-058A,2026-07-10T08:14:42.881568,1.00269774,.0001269,0.0173,37.8546,139.1643,118.5748,0,U,39360,999,4630,0,-.5E-7,0
INTELSAT 30 (IS-30),2014-062A,2026-07-10T06:18:34.396704,1.00271243,.00012376,0.0192,51.4260,336.2755,260.0814,0,U,40271,999,702,0,-.14E-5,0
DIRECTV 14,2014-078B,2026-07-10T06:17:27.003840,1.00267269,.0000235,0.0098,16.4578,270.9204,355.9331,0,U,40333,999,4227,0,-.114E-5,0
DIRECTV 15,2015-026A,2026-07-10T07:27:32.922144,1.00272568,.00001253,0.0196,72.6714,162.6704,61.9069,0,U,40663,999,4069,0,-.92E-6,0
SKY MEXICO-1,2015-026B,2026-07-10T07:23:38.817888,1.00271575,.00023197,0.0178,353.0003,137.9443,189.4027,0,U,40664,999,4068,0,-.224E-5,0
INTELSAT 34 (IS-34),2015-039A,2026-07-10T01:21:54.642816,1.00270657,.00001224,0.0101,16.1720,324.1781,272.6171,0,U,40874,999,3986,0,-.274E-5,0
INTELSAT 31 (IS-31),2016-035A,2026-07-10T06:18:34.396704,1.00271183,.00010139,0.0186,278.5787,347.5471,21.6525,0,U,41581,999,3691,0,-.14E-5,0
INTELSAT 36 (IS-36),2016-053A,2026-07-10T04:12:21.784032,1.00268599,.00025144,0.0102,354.9716,346.8192,77.8966,0,U,41747,999,3618,0,-.13E-6,0
INTELSAT 32E (IS-32E),2017-007B,2026-07-10T03:08:08.520288,1.00267562,.00003413,0.0258,33.0821,235.9737,22.8541,0,U,41945,999,3445,0,0,0
INTELSAT 35E (IS-35E),2017-041A,2026-07-10T08:13:02.051904,1.00270512,.00015755,0.0029,110.0779,359.3114,267.6476,0,U,42818,999,3304,0,-.228E-5,0
INTELSAT 37E (IS-37E),2017-059A,2026-07-10T06:40:32.291328,1.00270806,.00025303,0.0174,46.5596,70.0094,253.7716,0,U,42950,999,3229,0,-.13E-5,0
AZERSPACE 2 (IS-38),2018-074A,2026-07-10T05:15:53.587008,1.00272725,.00012722,0.0249,29.3091,98.0981,284.8304,0,U,43632,999,2867,0,0,0
HORIZONS-3E,2018-074B,2026-07-09T19:35:17.814624,1.00272318,.00007811,0.0363,213.3135,67.3154,109.9513,0,U,43633,999,2856,0,-.18E-6,0
AT&T T-16,2019-034A,2026-07-09T21:43:36.619680,1.00271911,.00007189,0.0147,67.1818,252.0909,193.6074,0,U,44333,999,2586,0,-.103E-5,0
INTELSAT 39 (IS-39),2019-049B,2026-07-10T04:32:21.827328,1.00266683,.00010923,0.0245,29.4915,296.0424,92.6209,0,U,44476,999,2535,0,0,0
GALAXY 30 (G-30),2020-056C,2026-07-10T06:10:05.210400,1.00270345,.00019386,0.0256,34.1445,79.9597,141.5979,0,U,46114,999,2152,0,0,0
GALAXY 33 (G-33),2022-128A,2026-07-10T08:04:44.731776,1.00270649,.0001798,0.0161,9.6093,107.0110,159.8280,0,U,54026,999,1397,0,.9E-6,0
GALAXY 34 (G-34),2022-128B,2026-07-10T08:07:44.734080,1.00265764,.00014982,0.0117,33.8074,90.3264,157.0600,0,U,54027,999,1414,0,.7E-6,0
GALAXY 31 (G-31),2022-153A,2026-07-10T08:12:09.734976,1.00269816,.00009321,0.0190,42.7700,80.0001,167.5317,0,U,54243,999,736,0,0,0
GALAXY 32 (G-32),2022-153B,2026-07-10T06:19:49.276992,1.00271315,.00015071,0.0095,29.5174,17.2587,245.3708,0,U,54244,999,1337,0,-.163E-5,0
GALAXY 35 (G-35),2022-170A,2026-07-10T07:26:17.710944,1.00269617,.00018613,0.0164,28.5392,87.0011,191.1661,0,U,54741,999,1312,0,0,0
GALAXY 36 (G-36),2022-170B,2026-07-10T06:20:19.229280,1.00271533,.00024264,0.0260,117.6924,341.0636,195.5164,0,U,54742,999,1300,0,-.174E-5,0
GALAXY 37 (G-37),2023-112A,2026-07-10T08:06:38.447136,1.00270378,.00017898,0.0150,54.9369,59.1388,168.8462,0,U,57493,999,1077,0,.59E-6,0
